0 COSMOS 2224
1 22269U 92088A   13279.02838285  .00000011  00000-0  10000-3 0   342
2 22269 013.1965 030.2241 0006311 123.3602 236.7065 01.00238641 75677
0 COSMOS 2224
1 22269U 92088A   13282.02107843  .00000003  00000-0  10000-3 0   357
2 22269 013.2005 030.1899 0006287 122.1533 237.9074 01.00239373 75703
0 COSMOS 2224
1 22269U 92088A   13283.01867279  .00000000  00000-0  10000-3 0   372
2 22269 013.2021 030.1798 0006083 127.9615 232.0976 01.00235493 75725
0 COSMOS 2224
1 22269U 92088A   13285.01378140 -.00000006  00000-0  10000-3 0   364
2 22269 013.2046 030.1564 0006338 122.2854 237.7754 01.00240059 75730
0 COSMOS 2224
1 22269U 92088A   13290.00150619 -.00000013  00000-0  10000-3 0   377
2 22269 013.2112 030.1004 0006357 123.1783 236.8580 01.00241178 75780
0 COSMOS 2224
1 22269U 92088A   13292.99412185 -.00000012  00000-0  10000-3 0   386
2 22269 013.2150 030.0662 0006427 122.7820 237.2448 01.00241849 75813
